[{"OBJECT_NAME":"ISS (UNITY)","OBJECT_ID":"1998-069F","EPOCH":"2026-03-09T16:57:57.785184","MEAN_MOTION":15.485472,"ECCENTRICITY":0.00080196,"INCLINATION":51.6323,"RA_OF_ASC_NODE":72.271,"ARG_OF_PERICENTER":174.6781,"MEAN_ANOMALY":185.4294,"EPHEMERIS_TYPE":0,"CLASSIFICATION_TYPE":"U","NORAD_CAT_ID":25575,"ELEMENT_SET_NO":999,"REV_AT_EPOCH":55441,"BSTAR":0.0001550955,"MEAN_MOTION_DOT":7.976e-5,"MEAN_MOTION_DDOT":0},{"OBJECT_NAME":"SONATE-2","OBJECT_ID":"2024-043Q","EPOCH":"2026-03-09T22:01:02.618688","MEAN_MOTION":15.51375867,"ECCENTRICITY":0.00078362,"INCLINATION":97.5397,"RA_OF_ASC_NODE":213.8574,"ARG_OF_PERICENTER":203.8793,"MEAN_ANOMALY":156.2096,"EPHEMERIS_TYPE":0,"CLASSIFICATION_TYPE":"U","NORAD_CAT_ID":59112,"ELEMENT_SET_NO":999,"REV_AT_EPOCH":11246,"BSTAR":0.00067640221,"MEAN_MOTION_DOT":0.00039886,"MEAN_MOTION_DDOT":0}]
